*******************************************************************************
Ephemeris / WWW_USER Fri Mar  7 10:20:28 2025 Pasadena, USA      / Horizons    
*******************************************************************************
Target body name: (2018 PK21)                     {source: JPL#33}
Center body name: Earth (399)                     {source: DE441}
Center-site name: Mauna Kea
*******************************************************************************
Start time      : A.D. 2018-Aug-04 05:07:00.0000 UT      
Stop  time      : A.D. 2018-Aug-04 15:49:00.0000 UT      
Step-size       : 1 minutes
*******************************************************************************
Target pole/equ : undefined
Target radii    : undefined                                                    
Center geodetic : 204.5278, 19.8260847, 4.21024   {E-lon(deg),Lat(deg),Alt(km)}
Center cylindric: 204.5278, 6006.35451, 2151.0229 {E-lon(deg),Dxy(km),Dz(km)}
Center pole/equ : ITRF93                          {East-longitude positive}
Center radii    : 6378.137, 6378.137, 6356.752 km {Equator_a, b, pole_c}       
Target primary  : Sun
Vis. interferer : MOON (R_eq= 1737.400) km        {source: DE441}
Rel. light bend : Sun                             {source: DE441}
Rel. lght bnd GM: 1.3271E+11 km^3/s^2                                          
Small-body perts: Yes                             {source: SB441-N16}
Atmos refraction: NO (AIRLESS)
RA format       : HMS
Time format     : CAL 
Calendar mode   : Mixed Julian/Gregorian
RTS-only print  : NO       
EOP file        : eop.250306.p250602                                           
EOP coverage    : DATA-BASED 1962-JAN-20 TO 2025-MAR-06. PREDICTS-> 2025-JUN-01
Units conversion: 1 au= 149597870.700 km, c= 299792.458 km/s, 1 day= 86400.0 s 
Table cut-offs 1: Elevation (-90.0deg=NO ),Airmass (>38.000=NO), Daylight (YES)
Table cut-offs 2: Solar elongation (  0.0,180.0=NO ),Local Hour Angle( 0.0=NO )
Table cut-offs 3: RA/DEC angular rate (     0.0=NO )                           
*******************************************************************************
Initial IAU76/J2000 heliocentric ecliptic osculating elements (au, days, deg.):
  EPOCH=  2458678.5 ! 2019-Jul-14.00 (TDB)         Residual RMS= .18538        
   EC= .08059571149071894  QR= .9080173735553244   TP= 2458556.3979336754      
   OM= 305.3714803879685   W=  224.0867446587677   IN= 1.196977749955446       
  Equivalent ICRF heliocentric cartesian coordinates (au, au/d):
   X= 5.084898226316541E-01  Y=-8.259633024476691E-01  Z=-3.605371187528673E-01
  VX= 1.486595997640644E-02 VY= 6.429710771461657E-03 VZ= 3.158008025433540E-03
Asteroid physical parameters (km, seconds, rotational period in hours):        
   GM= n.a.                RAD= n.a.               ROTPER= n.a.                
   H= 25.88                G= .150                 B-V= n.a.                   
                           ALBEDO= n.a.            STYP= n.a.                  
*******************************************************************************
 Date__(UT)__HR:MN     R.A._________(ICRF)_________DEC
******************************************************
$$SOE
 2018-Aug-04 09:13     23 05 56.737666 -01 39 01.35208
 2018-Aug-04 09:14     23 05 56.468641 -01 39 01.54830
 2018-Aug-04 09:15     23 05 56.199411 -01 39 01.74447
 2018-Aug-04 09:16     23 05 55.929976 -01 39 01.94059
 2018-Aug-04 09:17     23 05 55.660336 -01 39 02.13665
 2018-Aug-04 09:18     23 05 55.390493 -01 39 02.33266
 2018-Aug-04 09:19     23 05 55.120447 -01 39 02.52862
 2018-Aug-04 09:20     23 05 54.850200 -01 39 02.72452
 2018-Aug-04 09:21     23 05 54.579751 -01 39 02.92037
 2018-Aug-04 09:22     23 05 54.309101 -01 39 03.11617
 2018-Aug-04 09:23     23 05 54.038252 -01 39 03.31191
 2018-Aug-04 09:24     23 05 53.767204 -01 39 03.50760
 2018-Aug-04 09:25     23 05 53.495958 -01 39 03.70323
 2018-Aug-04 09:26     23 05 53.224514 -01 39 03.89881
 2018-Aug-04 09:27     23 05 52.952874 -01 39 04.09433
 2018-Aug-04 09:28     23 05 52.681038 -01 39 04.28979
 2018-Aug-04 09:29     23 05 52.409007 -01 39 04.48520
 2018-Aug-04 09:30     23 05 52.136781 -01 39 04.68055
 2018-Aug-04 09:31     23 05 51.864362 -01 39 04.87584
 2018-Aug-04 09:32     23 05 51.591751 -01 39 05.07108
 2018-Aug-04 09:33     23 05 51.318947 -01 39 05.26626
 2018-Aug-04 09:34     23 05 51.045953 -01 39 05.46137
 2018-Aug-04 09:35     23 05 50.772768 -01 39 05.65643
 2018-Aug-04 09:36     23 05 50.499394 -01 39 05.85144
 2018-Aug-04 09:37  m  23 05 50.225831 -01 39 06.04638
 2018-Aug-04 09:38  m  23 05 49.952080 -01 39 06.24126
 2018-Aug-04 09:39  m  23 05 49.678142 -01 39 06.43608
 2018-Aug-04 09:40  m  23 05 49.404018 -01 39 06.63084
 2018-Aug-04 09:41  m  23 05 49.129709 -01 39 06.82555
 2018-Aug-04 09:42  m  23 05 48.855215 -01 39 07.02019
 2018-Aug-04 09:43  m  23 05 48.580538 -01 39 07.21476
 2018-Aug-04 09:44  m  23 05 48.305678 -01 39 07.40928
 2018-Aug-04 09:45  m  23 05 48.030636 -01 39 07.60374
 2018-Aug-04 09:46  m  23 05 47.755412 -01 39 07.79813
 2018-Aug-04 09:47  m  23 05 47.480009 -01 39 07.99246
 2018-Aug-04 09:48  m  23 05 47.204425 -01 39 08.18673
 2018-Aug-04 09:49  m  23 05 46.928664 -01 39 08.38093
 2018-Aug-04 09:50  m  23 05 46.652724 -01 39 08.57507
 2018-Aug-04 09:51  m  23 05 46.376608 -01 39 08.76914
 2018-Aug-04 09:52  m  23 05 46.100316 -01 39 08.96316
 2018-Aug-04 09:53  m  23 05 45.823849 -01 39 09.15710
 2018-Aug-04 09:54  m  23 05 45.547207 -01 39 09.35099
 2018-Aug-04 09:55  m  23 05 45.270392 -01 39 09.54480
 2018-Aug-04 09:56  m  23 05 44.993405 -01 39 09.73855
 2018-Aug-04 09:57  m  23 05 44.716246 -01 39 09.93224
 2018-Aug-04 09:58  m  23 05 44.438916 -01 39 10.12586
 2018-Aug-04 09:59  m  23 05 44.161416 -01 39 10.31941
 2018-Aug-04 10:00  m  23 05 43.883748 -01 39 10.51290
 2018-Aug-04 10:01  m  23 05 43.605911 -01 39 10.70632
 2018-Aug-04 10:02  m  23 05 43.327908 -01 39 10.89967
 2018-Aug-04 10:03  m  23 05 43.049738 -01 39 11.09295
 2018-Aug-04 10:04  m  23 05 42.771403 -01 39 11.28617
 2018-Aug-04 10:05  m  23 05 42.492903 -01 39 11.47932
 2018-Aug-04 10:06  m  23 05 42.214240 -01 39 11.67240
 2018-Aug-04 10:07  m  23 05 41.935414 -01 39 11.86541
 2018-Aug-04 10:08  m  23 05 41.656427 -01 39 12.05835
 2018-Aug-04 10:09  m  23 05 41.377279 -01 39 12.25122
 2018-Aug-04 10:10  m  23 05 41.097971 -01 39 12.44402
 2018-Aug-04 10:11  m  23 05 40.818505 -01 39 12.63676
 2018-Aug-04 10:12  m  23 05 40.538880 -01 39 12.82942
 2018-Aug-04 10:13  m  23 05 40.259099 -01 39 13.02201
 2018-Aug-04 10:14  m  23 05 39.979161 -01 39 13.21453
 2018-Aug-04 10:15  m  23 05 39.699068 -01 39 13.40698
 2018-Aug-04 10:16  m  23 05 39.418821 -01 39 13.59936
 2018-Aug-04 10:17  m  23 05 39.138421 -01 39 13.79166
 2018-Aug-04 10:18  m  23 05 38.857868 -01 39 13.98390
 2018-Aug-04 10:19  m  23 05 38.577165 -01 39 14.17606
 2018-Aug-04 10:20  m  23 05 38.296310 -01 39 14.36815
 2018-Aug-04 10:21  m  23 05 38.015307 -01 39 14.56017
 2018-Aug-04 10:22  m  23 05 37.734155 -01 39 14.75211
 2018-Aug-04 10:23  m  23 05 37.452855 -01 39 14.94398
 2018-Aug-04 10:24  m  23 05 37.171409 -01 39 15.13578
 2018-Aug-04 10:25  m  23 05 36.889818 -01 39 15.32750
 2018-Aug-04 10:26  m  23 05 36.608082 -01 39 15.51915
 2018-Aug-04 10:27  m  23 05 36.326202 -01 39 15.71072
 2018-Aug-04 10:28  m  23 05 36.044180 -01 39 15.90222
 2018-Aug-04 10:29  m  23 05 35.762016 -01 39 16.09365
 2018-Aug-04 10:30  m  23 05 35.479711 -01 39 16.28500
 2018-Aug-04 10:31  m  23 05 35.197267 -01 39 16.47627
 2018-Aug-04 10:32  m  23 05 34.914684 -01 39 16.66747
 2018-Aug-04 10:33  m  23 05 34.631963 -01 39 16.85860
 2018-Aug-04 10:34  m  23 05 34.349106 -01 39 17.04964
 2018-Aug-04 10:35  m  23 05 34.066113 -01 39 17.24061
 2018-Aug-04 10:36  m  23 05 33.782985 -01 39 17.43151
 2018-Aug-04 10:37  m  23 05 33.499724 -01 39 17.62233
 2018-Aug-04 10:38  m  23 05 33.216330 -01 39 17.81307
 2018-Aug-04 10:39  m  23 05 32.932804 -01 39 18.00373
 2018-Aug-04 10:40  m  23 05 32.649147 -01 39 18.19431
 2018-Aug-04 10:41  m  23 05 32.365361 -01 39 18.38482
 2018-Aug-04 10:42  m  23 05 32.081447 -01 39 18.57525
 2018-Aug-04 10:43  m  23 05 31.797405 -01 39 18.76560
 2018-Aug-04 10:44  m  23 05 31.513236 -01 39 18.95588
 2018-Aug-04 10:45  m  23 05 31.228941 -01 39 19.14607
 2018-Aug-04 10:46  m  23 05 30.944522 -01 39 19.33618
 2018-Aug-04 10:47  m  23 05 30.659980 -01 39 19.52622
 2018-Aug-04 10:48  m  23 05 30.375315 -01 39 19.71618
 2018-Aug-04 10:49  m  23 05 30.090529 -01 39 19.90605
 2018-Aug-04 10:50  m  23 05 29.805622 -01 39 20.09585
 2018-Aug-04 10:51  m  23 05 29.520596 -01 39 20.28557
 2018-Aug-04 10:52  m  23 05 29.235451 -01 39 20.47520
 2018-Aug-04 10:53  m  23 05 28.950189 -01 39 20.66476
 2018-Aug-04 10:54  m  23 05 28.664811 -01 39 20.85424
 2018-Aug-04 10:55  m  23 05 28.379318 -01 39 21.04363
 2018-Aug-04 10:56  m  23 05 28.093710 -01 39 21.23294
 2018-Aug-04 10:57  m  23 05 27.807990 -01 39 21.42218
 2018-Aug-04 10:58  m  23 05 27.522157 -01 39 21.61133
 2018-Aug-04 10:59  m  23 05 27.236214 -01 39 21.80040
 2018-Aug-04 11:00  m  23 05 26.950160 -01 39 21.98938
 2018-Aug-04 11:01  m  23 05 26.663998 -01 39 22.17829
 2018-Aug-04 11:02  m  23 05 26.377728 -01 39 22.36711
 2018-Aug-04 11:03  m  23 05 26.091351 -01 39 22.55585
 2018-Aug-04 11:04  m  23 05 25.804868 -01 39 22.74451
 2018-Aug-04 11:05  m  23 05 25.518281 -01 39 22.93308
 2018-Aug-04 11:06  m  23 05 25.231590 -01 39 23.12158
 2018-Aug-04 11:07  m  23 05 24.944797 -01 39 23.30998
 2018-Aug-04 11:08  m  23 05 24.657902 -01 39 23.49831
 2018-Aug-04 11:09  m  23 05 24.370907 -01 39 23.68655
 2018-Aug-04 11:10  m  23 05 24.083813 -01 39 23.87471
 2018-Aug-04 11:11  m  23 05 23.796620 -01 39 24.06278
 2018-Aug-04 11:12  m  23 05 23.509331 -01 39 24.25077
 2018-Aug-04 11:13  m  23 05 23.221945 -01 39 24.43868
 2018-Aug-04 11:14  m  23 05 22.934465 -01 39 24.62650
 2018-Aug-04 11:15  m  23 05 22.646890 -01 39 24.81423
